{"type":"FeatureCollection","features":[{"type":"Feature","id":1,"geometry":{"type":"Point","coordinates":[50.349040509360051,30.111352952508042]},"properties":{"OBJECTID":1,"gis_id":"39N3331303437286","bc_prod":"فعاليت\u200Cهاي پشتيباني استخراج نفت و گاز طبيعي"}},{"type":"Feature","id":2,"geometry":{"type":"Point","coordinates":[50.355077260677326,29.735930508309984]},"properties":{"OBJECTID":2,"gis_id":"39N3289699437634","bc_prod":"استخراج گاز طبيعي"}},{"type":"Feature","id":3,"geometry":{"type":"Point","coordinates":[50.417328378426973,29.884114885761065]},"properties":{"OBJECTID":3,"gis_id":"39N3306087443737","bc_prod":"فعاليت\u200Cهاي پشتيباني استخراج نفت و گاز طبيعي"}},{"type":"Feature","id":4,"geometry":{"type":"Point","coordinates":[50.448629581279214,29.836076125353664]},"properties":{"OBJECTID":4,"gis_id":"39N3300749446734","bc_prod":"فعاليت\u200Cهاي پشتيباني استخراج نفت و گاز طبيعي"}},{"type":"Feature","id":5,"geometry":{"type":"Point","coordinates":[50.449722342100252,29.636082998852586]},"properties":{"OBJECTID":5,"gis_id":"39N3278588446734","bc_prod":"فعاليت\u200Cهاي پشتيباني استخراج نفت و گاز طبيعي"}},{"type":"Feature","id":6,"geometry":{"type":"Point","coordinates":[50.457714961634714,29.830861401760952]},"properties":{"OBJECTID":6,"gis_id":"39N3300167447609","bc_prod":"فعاليت\u200Cهاي پشتيباني استخراج نفت و گاز طبيعي"}},{"type":"Feature","id":7,"geometry":{"type":"Point","coordinates":[50.670748980216779,29.399597741201845]},"properties":{"OBJECTID":7,"gis_id":"39N3252304468055","bc_prod":"كشت و صتعت"}},{"type":"Feature","id":8,"geometry":{"type":"Point","coordinates":[50.842583833058995,28.981931580744824]},"properties":{"OBJECTID":8,"gis_id":"39N3205994484665","bc_prod":"حمل ونقل دريايي و آب هاي ساحلي مسافر"}},{"type":"Feature","id":9,"geometry":{"type":"Point","coordinates":[50.846366526428852,28.8740746803559]},"properties":{"OBJECTID":9,"gis_id":"39N3194044485018","bc_prod":"جمع آوري، تصيفه و تامين آب"}},{"type":"Feature","id":10,"geometry":{"type":"Point","coordinates":[50.89310308383768,28.837482686039994]},"properties":{"OBJECTID":10,"gis_id":"39N3189985489572","bc_prod":"توليد، انتقال و توزيع برق"}},{"type":"Feature","id":11,"geometry":{"type":"Point","coordinates":[50.89310308383768,28.837482686039994]},"properties":{"OBJECTID":11,"gis_id":"39N3189985489572","bc_prod":"توليد، انتقال و توزيع برق"}},{"type":"Feature","id":12,"geometry":{"type":"Point","coordinates":[50.89310308383768,28.837482686039994]},"properties":{"OBJECTID":12,"gis_id":"39N3189985489572","bc_prod":"توليد، انتقال و توزيع برق"}},{"type":"Feature","id":13,"geometry":{"type":"Point","coordinates":[50.89310308383768,28.837482686039994]},"properties":{"OBJECTID":13,"gis_id":"39N3189985489572","bc_prod":"استخراج نفت خام"}},{"type":"Feature","id":14,"geometry":{"type":"Point","coordinates":[50.89310308383768,28.837482686039994]},"properties":{"OBJECTID":14,"gis_id":"39N3189985489572","bc_prod":"استخراج نفت خام"}},{"type":"Feature","id":15,"geometry":{"type":"Point","coordinates":[50.89310308383768,28.837482686039994]},"properties":{"OBJECTID":15,"gis_id":"39N3189985489572","bc_prod":"استخراج نفت خام"}},{"type":"Feature","id":16,"geometry":{"type":"Point","coordinates":[50.89310308383768,28.837482686039994]},"properties":{"OBJECTID":16,"gis_id":"39N3189985489572","bc_prod":"ساخت بنا"}},{"type":"Feature","id":17,"geometry":{"type":"Point","coordinates":[50.89310308383768,28.837482686039994]},"properties":{"OBJECTID":17,"gis_id":"39N3189985489572","bc_prod":"ساخت بنا"}},{"type":"Feature","id":18,"geometry":{"type":"Point","coordinates":[50.89310308383768,28.837482686039994]},"properties":{"OBJECTID":18,"gis_id":"39N3189985489572","bc_prod":"ساخت بنا"}},{"type":"Feature","id":19,"geometry":{"type":"Point","coordinates":[51.000391863655054,29.452703679761619]},"properties":{"OBJECTID":19,"gis_id":"39N3258143500038","bc_prod":"جمع آوري، تصيفه و تامين آب"}},{"type":"Feature","id":20,"geometry":{"type":"Point","coordinates":[51.213893156439234,28.871095152763345]},"properties":{"OBJECTID":20,"gis_id":"39N3193723520859","bc_prod":"فعاليت\u200Cهاي پشتيباني استخراج نفت و گاز طبيعي"}},{"type":"Feature","id":21,"geometry":{"type":"Point","coordinates":[51.255710214394611,29.505725291899559]},"properties":{"OBJECTID":21,"gis_id":"39N3264045524784","bc_prod":"استخراج گاز طبيعي"}},{"type":"Feature","id":22,"geometry":{"type":"Point","coordinates":[51.273032045345836,29.304659798600319]},"properties":{"OBJECTID":22,"gis_id":"39N3241771526515","bc_prod":"توليد سيمان وآهك وگچ"}},{"type":"Feature","id":23,"geometry":{"type":"Point","coordinates":[51.552688883747045,28.623945537511325]},"properties":{"OBJECTID":23,"gis_id":"39N3166448554026","bc_prod":"توليد سيمان وآهك وگچ"}},{"type":"Feature","id":24,"geometry":{"type":"Point","coordinates":[51.592150225969306,28.581012574125744]},"properties":{"OBJECTID":24,"gis_id":"39N3161710557907","bc_prod":"توليد سيمان وآهك وگچ"}},{"type":"Feature","id":25,"geometry":{"type":"Point","coordinates":[51.604496217360676,28.192953617294172]},"properties":{"OBJECTID":25,"gis_id":"39N3118725559330","bc_prod":"جمع آوري، تصيفه و تامين آب"}},{"type":"Feature","id":26,"geometry":{"type":"Point","coordinates":[51.757463751950795,29.468346134497544]},"properties":{"OBJECTID":26,"gis_id":"39N3260115573443","bc_prod":"توليد فراورده\u200Cهاي پالايش شده نفت"}},{"type":"Feature","id":27,"geometry":{"type":"Point","coordinates":[51.825786137513148,27.850171363998086]},"properties":{"OBJECTID":27,"gis_id":"39N3080879581307","bc_prod":"توليد فراورده\u200Cهاي پالايش شده نفت"}},{"type":"Feature","id":28,"geometry":{"type":"Point","coordinates":[51.825786137513148,27.850171363998086]},"properties":{"OBJECTID":28,"gis_id":"39N3080879581307","bc_prod":"توليد فراورده\u200Cهاي پالايش شده نفت"}},{"type":"Feature","id":29,"geometry":{"type":"Point","coordinates":[51.825786137513148,27.850171363998086]},"properties":{"OBJECTID":29,"gis_id":"39N3080879581307","bc_prod":"توليد فراورده\u200Cهاي پالايش شده نفت"}},{"type":"Feature","id":30,"geometry":{"type":"Point","coordinates":[51.825786137513148,27.850171363998086]},"properties":{"OBJECTID":30,"gis_id":"39N3080879581307","bc_prod":"توليد فراورده\u200Cهاي پالايش شده نفت"}},{"type":"Feature","id":31,"geometry":{"type":"Point","coordinates":[51.825786137513148,27.850171363998086]},"properties":{"OBJECTID":31,"gis_id":"39N3080879581307","bc_prod":"توليد فراورده\u200Cهاي پالايش شده نفت"}},{"type":"Feature","id":32,"geometry":{"type":"Point","coordinates":[51.825786137513148,27.850171363998086]},"properties":{"OBJECTID":32,"gis_id":"39N3080879581307","bc_prod":"توليد فراورده\u200Cهاي پالايش شده نفت"}},{"type":"Feature","id":33,"geometry":{"type":"Point","coordinates":[51.825786137513148,27.850171363998086]},"properties":{"OBJECTID":33,"gis_id":"39N3080879581307","bc_prod":"توليد فراورده\u200Cهاي پالايش شده نفت"}},{"type":"Feature","id":34,"geometry":{"type":"Point","coordinates":[51.825786137513148,27.850171363998086]},"properties":{"OBJECTID":34,"gis_id":"39N3080879581307","bc_prod":"توليد فراورده\u200Cهاي پالايش شده نفت"}},{"type":"Feature","id":35,"geometry":{"type":"Point","coordinates":[51.825786137513148,27.850171363998086]},"properties":{"OBJECTID":35,"gis_id":"39N3080879581307","bc_prod":"توليد فراورده\u200Cهاي پالايش شده نفت"}},{"type":"Feature","id":36,"geometry":{"type":"Point","coordinates":[52.008780584753232,28.048812182340367]},"properties":{"OBJECTID":36,"gis_id":"39N3103020599144","bc_prod":"فعاليت\u200Cهاي پشتيباني استخراج نفت و گاز طبيعي"}},{"type":"Feature","id":37,"geometry":{"type":"Point","coordinates":[52.08969246974695,28.859135029499956]},"properties":{"OBJECTID":37,"gis_id":"39N3192867606283","bc_prod":"فعاليت\u200Cهاي پشتيباني استخراج نفت و گاز طبيعي"}},{"type":"Feature","id":38,"geometry":{"type":"Point","coordinates":[52.140415588179351,27.760209696336037]},"properties":{"OBJECTID":38,"gis_id":"39N3071161612380","bc_prod":"استخراج گاز طبيعي"}},{"type":"Feature","id":39,"geometry":{"type":"Point","coordinates":[52.17294203264774,27.731332447397431]},"properties":{"OBJECTID":39,"gis_id":"39N3067992615616","bc_prod":"فعاليت\u200Cهاي پشتيباني استخراج نفت و گاز طبيعي"}},{"type":"Feature","id":40,"geometry":{"type":"Point","coordinates":[52.17484243585357,27.740162352518247]},"properties":{"OBJECTID":40,"gis_id":"39N3068972615794","bc_prod":"توليد سيمان وآهك وگچ"}},{"type":"Feature","id":41,"geometry":{"type":"Point","coordinates":[52.19908436076377,27.93457229302356]},"properties":{"OBJECTID":41,"gis_id":"39N3090533617973","bc_prod":"فعاليت\u200Cهاي پشتيباني استخراج نفت و گاز طبيعي"}},{"type":"Feature","id":42,"geometry":{"type":"Point","coordinates":[52.210799013022083,28.177596588551495]},"properties":{"OBJECTID":42,"gis_id":"39N3117469618858","bc_prod":"فعاليت\u200Cهاي پشتيباني استخراج نفت و گاز طبيعي"}},{"type":"Feature","id":43,"geometry":{"type":"Point","coordinates":[52.207735037377866,27.71090397911351]},"properties":{"OBJECTID":43,"gis_id":"39N3065762619068","bc_prod":"فعاليت\u200Cهاي پشتيباني استخراج نفت و گاز طبيعي"}},{"type":"Feature","id":44,"geometry":{"type":"Point","coordinates":[52.284163032334796,29.899031703680112]},"properties":{"OBJECTID":44,"gis_id":"39N3308290623985","bc_prod":" فعاليت\u200Cهاي پزشكي و دندانپزشكي"}},{"type":"Feature","id":45,"geometry":{"type":"Point","coordinates":[52.278838951249071,27.69144529490395]},"properties":{"OBJECTID":45,"gis_id":"39N3063677626101","bc_prod":"فعاليت\u200Cهاي پشتيباني استخراج نفت و گاز طبيعي"}},{"type":"Feature","id":46,"geometry":{"type":"Point","coordinates":[52.33012746200427,27.814043909006543]},"properties":{"OBJECTID":46,"gis_id":"39N3077313631012","bc_prod":"ساخت بنا"}},{"type":"Feature","id":47,"geometry":{"type":"Point","coordinates":[52.378266142414013,31.410098935105339]},"properties":{"OBJECTID":47,"gis_id":"39N3475874631017","bc_prod":"توليد ماشين آلات متالوژ\u0650ي - ذوب فلزات"}},{"type":"Feature","id":48,"geometry":{"type":"Point","coordinates":[52.419627293999881,30.206036437248024]},"properties":{"OBJECTID":48,"gis_id":"39N3342468636643","bc_prod":"توليد، انتقال و توزيع برق"}},{"type":"Feature","id":49,"geometry":{"type":"Point","coordinates":[52.426692003327467,28.688571838161938]},"properties":{"OBJECTID":49,"gis_id":"39N3174316639382","bc_prod":"توليد مواد شيميايي اساسي"}},{"type":"Feature","id":50,"geometry":{"type":"Point","coordinates":[52.442545929684094,29.61479716132045]},"properties":{"OBJECTID":50,"gis_id":"39N3276972639672","bc_prod":"توليد سيمان وآهك وگچ"}},{"type":"Feature","id":51,"geometry":{"type":"Point","coordinates":[52.468524675417534,29.686393841813207]},"properties":{"OBJECTID":51,"gis_id":"39N3284938642087","bc_prod":"حمل و نقل زميني مسافر درون شهري و حومه شهر"}},{"type":"Feature","id":52,"geometry":{"type":"Point","coordinates":[52.459740702256759,27.635021875278927]},"properties":{"OBJECTID":52,"gis_id":"39N3057624644015","bc_prod":"ساخت بنا"}},{"type":"Feature","id":53,"geometry":{"type":"Point","coordinates":[52.522516529162878,29.628485422753332]},"properties":{"OBJECTID":53,"gis_id":"39N3278588647396","bc_prod":"حمل و نقل زميني مسافر درون شهري و حومه شهر"}},{"type":"Feature","id":54,"geometry":{"type":"Point","coordinates":[52.497557331402703,27.609995641432278]},"properties":{"OBJECTID":54,"gis_id":"39N3054896647780","bc_prod":"فعاليت\u200Cهاي پشتيباني استخراج نفت و گاز طبيعي"}},{"type":"Feature","id":55,"geometry":{"type":"Point","coordinates":[52.541199204837625,30.127943004398318]},"properties":{"OBJECTID":55,"gis_id":"39N3333965648463","bc_prod":"جمع آوري، تصيفه و تامين آب"}},{"type":"Feature","id":56,"geometry":{"type":"Point","coordinates":[52.511974357718515,27.596616181851058]},"properties":{"OBJECTID":56,"gis_id":"39N3053431649221","bc_prod":"فعاليت\u200Cهاي پشتيباني استخراج نفت و گاز طبيعي"}},{"type":"Feature","id":57,"geometry":{"type":"Point","coordinates":[52.537054195911182,27.581754742897122]},"properties":{"OBJECTID":57,"gis_id":"39N3051815651717","bc_prod":"توليد فراورده\u200Cهاي پالايش شده نفت"}},{"type":"Feature","id":58,"geometry":{"type":"Point","coordinates":[52.575687087463095,29.584091891698204]},"properties":{"OBJECTID":58,"gis_id":"39N3273737652611","bc_prod":"حمل و نقل زميني مسافر درون شهري و حومه شهر"}},{"type":"Feature","id":59,"geometry":{"type":"Point","coordinates":[52.565641139098567,27.552579453564157]},"properties":{"OBJECTID":59,"gis_id":"39N3048618654580","bc_prod":"فعاليت\u200Cهاي پشتيباني استخراج نفت و گاز طبيعي"}},{"type":"Feature","id":60,"geometry":{"type":"Point","coordinates":[52.657817415194138,30.663515076997719]},"properties":{"OBJECTID":60,"gis_id":"39N3393484658829","bc_prod":"ريخته گري آهن وفولاد"}},{"type":"Feature","id":61,"geometry":{"type":"Point","coordinates":[52.638731692643809,29.445126762749979]},"properties":{"OBJECTID":61,"gis_id":"39N3258421658935","bc_prod":"فعاليت\u200Cهاي برنامه\u200Cريزي و پخش برنامه\u200Cهاي تلويزيوني"}},{"type":"Feature","id":62,"geometry":{"type":"Point","coordinates":[52.646592829464893,29.746721801767837]},"properties":{"OBJECTID":62,"gis_id":"39N3291856659223","bc_prod":"جمع آوري، تصيفه و تامين آب"}},{"type":"Feature","id":63,"geometry":{"type":"Point","coordinates":[52.651565580245261,29.737212685556202]},"properties":{"OBJECTID":63,"gis_id":"39N3290809659719","bc_prod":"توليد فراورده\u200Cهاي پالايش شده نفت"}},{"type":"Feature","id":64,"geometry":{"type":"Point","coordinates":[52.646010342086583,29.120294519215665]},"properties":{"OBJECTID":64,"gis_id":"39N3222433660147","bc_prod":"توليد سيمان وآهك وگچ"}},{"type":"Feature","id":65,"geometry":{"type":"Point","coordinates":[52.672858592985449,29.969022124023464]},"properties":{"OBJECTID":65,"gis_id":"39N3316530661405","bc_prod":"توليد آهن وفولاد پايه"}},{"type":"Feature","id":66,"geometry":{"type":"Point","coordinates":[52.695435403750388,29.921165790862048]},"properties":{"OBJECTID":66,"gis_id":"39N3311258663662","bc_prod":"جمع آوري، تصيفه و تامين آب"}},{"type":"Feature","id":67,"geometry":{"type":"Point","coordinates":[52.745904806399828,29.881745829330018]},"properties":{"OBJECTID":67,"gis_id":"39N3306962668601","bc_prod":"توليد كودشيميايي و تركيبات نيتروژن"}},{"type":"Feature","id":68,"geometry":{"type":"Point","coordinates":[52.764895988185692,29.527338410746928]},"properties":{"OBJECTID":68,"gis_id":"39N3267711671035","bc_prod":"توليد آهن وفولاد پايه"}},{"type":"Feature","id":69,"geometry":{"type":"Point","coordinates":[52.837188868240666,29.904740377872464]},"properties":{"OBJECTID":69,"gis_id":"39N3309648677377","bc_prod":"توليد وسايل برقي خانگي"}},{"type":"Feature","id":70,"geometry":{"type":"Point","coordinates":[52.840921409913896,29.18999987906852]},"properties":{"OBJECTID":70,"gis_id":"39N3230439678993","bc_prod":"توليد ماشين آلات متالوژ\u0650ي - ذوب فلزات"}},{"type":"Feature","id":71,"geometry":{"type":"Point","coordinates":[52.889667559722177,30.94612172292527]},"properties":{"OBJECTID":71,"gis_id":"39N3425162680516","bc_prod":"توليد سيمان وآهك وگچ"}},{"type":"Feature","id":72,"geometry":{"type":"Point","coordinates":[52.92238100278832,30.659869825073201]},"properties":{"OBJECTID":72,"gis_id":"39N3393484684187","bc_prod":"فعاليت\u200Cهاي پشتيباني استخراج نفت و گاز طبيعي"}},{"type":"Feature","id":73,"geometry":{"type":"Point","coordinates":[52.958156233263523,27.490257800590214]},"properties":{"OBJECTID":73,"gis_id":"39N3042264693451","bc_prod":"توليد فراورده\u200Cهاي پالايش شده نفت"}},{"type":"Feature","id":74,"geometry":{"type":"Point","coordinates":[53.089620367263343,27.904183392852989]},"properties":{"OBJECTID":74,"gis_id":"39N3088344705664","bc_prod":"فعاليت\u200Cهاي پشتيباني استخراج نفت و گاز طبيعي"}},{"type":"Feature","id":75,"geometry":{"type":"Point","coordinates":[53.119177769196519,29.253921161482801]},"properties":{"OBJECTID":75,"gis_id":"39N3237980705926","bc_prod":"استخراج نفت خام"}},{"type":"Feature","id":76,"geometry":{"type":"Point","coordinates":[53.149147050603517,29.526740866987609]},"properties":{"OBJECTID":76,"gis_id":"39N3268272708282","bc_prod":"توليد سيمان وآهك وگچ"}},{"type":"Feature","id":77,"geometry":{"type":"Point","coordinates":[53.231547906119687,28.408938625319919]},"properties":{"OBJECTID":77,"gis_id":"39N3144530718608","bc_prod":"توليد سيمان وآهك وگچ"}},{"type":"Feature","id":78,"geometry":{"type":"Point","coordinates":[53.232749368659853,27.39995141224643]},"properties":{"OBJECTID":78,"gis_id":"39N3032715720766","bc_prod":"توليد ماشين آلات متالوژ\u0650ي - ذوب فلزات"}},{"type":"Feature","id":79,"geometry":{"type":"Point","coordinates":[53.289388388301774,29.451080157708091]},"properties":{"OBJECTID":79,"gis_id":"39N3260145722042","bc_prod":"توليد آهن وفولاد پايه"}},{"type":"Feature","id":80,"geometry":{"type":"Point","coordinates":[53.310811865192349,29.48034557154438]},"properties":{"OBJECTID":80,"gis_id":"39N3263430724056","bc_prod":"توليد آهن وفولاد پايه"}},{"type":"Feature","id":81,"geometry":{"type":"Point","coordinates":[53.383344340984195,28.507624178717105]},"properties":{"OBJECTID":81,"gis_id":"39N3155753733266","bc_prod":"جمع آوري، تصيفه و تامين آب"}},{"type":"Feature","id":82,"geometry":{"type":"Point","coordinates":[53.432644334364305,28.752600579414725]},"properties":{"OBJECTID":82,"gis_id":"39N3183003737540","bc_prod":"توليد فراورده\u200Cهاي پالايش شده نفت"}},{"type":"Feature","id":83,"geometry":{"type":"Point","coordinates":[53.432644334364305,28.752600579414725]},"properties":{"OBJECTID":83,"gis_id":"39N3183003737540","bc_prod":"توليد فراورده\u200Cهاي پالايش شده نفت"}},{"type":"Feature","id":84,"geometry":{"type":"Point","coordinates":[53.432644334364305,28.752600579414725]},"properties":{"OBJECTID":84,"gis_id":"39N3183003737540","bc_prod":"كشت و صنعت"}},{"type":"Feature","id":85,"geometry":{"type":"Point","coordinates":[53.432644334364305,28.752600579414725]},"properties":{"OBJECTID":85,"gis_id":"39N3183003737540","bc_prod":"كشت و صنعت"}},{"type":"Feature","id":86,"geometry":{"type":"Point","coordinates":[53.444204261483463,27.326789547728637]},"properties":{"OBJECTID":86,"gis_id":"39N3025000741840","bc_prod":"توليد سيمان وآهك وگچ"}},{"type":"Feature","id":87,"geometry":{"type":"Point","coordinates":[53.507132808595706,28.821074705328186]},"properties":{"OBJECTID":87,"gis_id":"39N3190744744656","bc_prod":"توليد سيمان وآهك وگچ"}},{"type":"Feature","id":88,"geometry":{"type":"Point","coordinates":[53.825421604893016,29.207571693259368]},"properties":{"OBJECTID":88,"gis_id":"39N3234290774703","bc_prod":"توليد سيمان وآهك وگچ"}},{"type":"Feature","id":89,"geometry":{"type":"Point","coordinates":[53.826510205436612,28.85931964210933]},"properties":{"OBJECTID":89,"gis_id":"39N3195684775734","bc_prod":"توليد فراورده\u200Cهاي پالايش شده نفت"}},{"type":"Feature","id":90,"geometry":{"type":"Point","coordinates":[53.865781443450977,28.97250325732243]},"properties":{"OBJECTID":90,"gis_id":"39N3208324779263","bc_prod":"توليد آهن وفولاد پايه"}},{"type":"Feature","id":91,"geometry":{"type":"Point","coordinates":[54.473705628364009,29.254617856515747]},"properties":{"OBJECTID":91,"gis_id":"403241201837615","bc_prod":"توليد سيمان وآهك وگچ"}},{"type":"Feature","id":92,"geometry":{"type":"Point","coordinates":[54.187849188221882,28.690820396751761]},"properties":{"OBJECTID":92,"gis_id":"40N3177895811503","bc_prod":"توليد سيمان وآهك وگچ"}},{"type":"Feature","id":93,"geometry":{"type":"Point","coordinates":[54.482308177808541,27.785247673246396]},"properties":{"OBJECTID":93,"gis_id":"40N3078279843186","bc_prod":"توليد سيمان وآهك وگچ"}},{"type":"Feature","id":94,"geometry":{"type":"Point","coordinates":[54.474695705944754,29.207315407953576]},"properties":{"OBJECTID":94,"gis_id":"40N3233596254486","bc_prod":"توليد سيمان وآهك وگچ"}},{"type":"Feature","id":95,"geometry":{"type":"Point","coordinates":[54.316260667940554,28.67724694056156]},"properties":{"OBJECTID":95,"gis_id":"39N3175177237744","bc_prod":"توليد فراورده\u200Cهاي پالايش شده نفت"}},{"type":"Feature","id":96,"geometry":{"type":"Point","coordinates":[55.130079794689486,27.787085927848647]},"properties":{"OBJECTID":96,"gis_id":"39N3075019315766","bc_prod":"توليد سيمان وآهك وگچ"}}]}